[{"OBJECT_NAME":"SITRO-AIS 21","OBJECT_ID":"2024-199E","EPOCH":"2026-03-09T22:38:47.668992","MEAN_MOTION":14.94747634,"ECCENTRICITY":0.00136926,"INCLINATION":97.333,"RA_OF_ASC_NODE":273.2344,"ARG_OF_PERICENTER":42.1108,"MEAN_ANOMALY":318.1163,"EPHEMERIS_TYPE":0,"CLASSIFICATION_TYPE":"U","NORAD_CAT_ID":61739,"ELEMENT_SET_NO":999,"REV_AT_EPOCH":11692,"BSTAR":0.00018121744,"MEAN_MOTION_DOT":1.92e-5,"MEAN_MOTION_DDOT":0},{"OBJECT_NAME":"STARLINK-34355","OBJECT_ID":"2025-123R","EPOCH":"2026-03-09T18:06:45.951264","MEAN_MOTION":14.9835514,"ECCENTRICITY":0.00028594,"INCLINATION":70.0033,"RA_OF_ASC_NODE":194.473,"ARG_OF_PERICENTER":265.6748,"MEAN_ANOMALY":94.4085,"EPHEMERIS_TYPE":0,"CLASSIFICATION_TYPE":"U","NORAD_CAT_ID":64306,"ELEMENT_SET_NO":999,"REV_AT_EPOCH":4162,"BSTAR":0.001392673,"MEAN_MOTION_DOT":0.00016574,"MEAN_MOTION_DDOT":0}]
